OBJECT_NAME,OBJECT_ID,EPOCH,MEAN_MOTION,ECCENTRICITY,INCLINATION,RA_OF_ASC_NODE,ARG_OF_PERICENTER,MEAN_ANOMALY,EPHEMERIS_TYPE,CLASSIFICATION_TYPE,NORAD_CAT_ID,ELEMENT_SET_NO,REV_AT_EPOCH,BSTAR,MEAN_MOTION_DOT,MEAN_MOTION_DDOT
HODOYOSHI-4,2014-033B,2026-07-07T03:19:33.038112,14.88179325,.0022129,97.5461,11.9983,237.7306,122.1768,0,U,40011,999,65177,.23043E-3,.2081E-4,0
DEIMOS-2,2014-033D,2026-07-07T03:29:15.578880,14.93789658,.0001127,97.5801,61.9307,81.8545,278.2803,0,U,40013,999,64070,.26137E-3,.2717E-4,0
HODOYOSHI-3,2014-033F,2026-07-06T22:08:10.792896,14.85426379,.003138,97.6438,350.1708,290.5000,69.2849,0,U,40015,999,65055,.99451E-4,.811E-5,0
SPOT 7,2014-034A,2026-07-07T04:19:34.348224,14.60976856,.0001495,98.0613,250.1562,98.6032,261.5339,0,U,40053,999,64005,.83556E-4,.364E-5,0
SKYSAT-B,2014-037D,2026-07-06T08:33:26.320896,14.88077956,.00048378,98.3848,147.4157,202.7715,157.3286,0,U,40072,999,64881,.15917632E-3,.1402E-4,0
WORLDVIEW-3 (WV-3),2014-048A,2026-07-07T04:17:55.129056,14.85055497,.0000657,97.8559,262.7356,167.3198,192.8034,0,U,40115,999,64487,.94288E-4,.752E-5,0
GAOFEN-2,2014-049A,2026-07-07T04:13:47.224128,14.80920813,.0007662,98.0095,252.3639,158.1268,202.0272,0,U,40118,999,64219,.15696E-4,.68E-6,0
YAOGAN-21,2014-053A,2026-07-07T05:18:28.579968,15.26684192,.0008661,97.1464,227.5989,35.0176,325.1631,0,U,40143,999,65801,.15589E-3,.4026E-4,0
YAOGAN-22,2014-063A,2026-07-06T23:00:54.173376,13.15531480,.0006744,100.7751,339.5625,142.3559,217.8025,0,U,40275,999,56241,.25509E-4,-.37E-6,0
ASNARO,2014-070A,2026-07-07T04:15:47.320128,15.19747814,.0006831,97.3441,263.7535,110.2176,249.9794,0,U,40298,999,64704,.17925E-3,.3767E-4,0
YAOGAN-24,2014-072A,2026-07-07T05:08:19.881600,14.76112428,.0013952,98.1519,325.7220,195.5480,164.5302,0,U,40310,999,62667,.1267E-3,.823E-5,0
CBERS 4,2014-079A,2026-07-07T04:20:41.517312,14.35514724,.0001117,98.3516,244.3847,50.6558,309.4727,0,U,40336,999,60682,.23435E-4,.25E-6,0
YAOGAN-26,2014-088A,2026-07-07T04:13:14.009376,15.48210659,.0003168,97.0645,187.9269,18.5233,341.6133,0,U,40362,999,64079,.4477E-3,.23521E-3,0
SMAP,2015-003A,2026-07-07T04:22:41.304000,14.63384435,.0001536,98.1279,194.9938,97.4375,262.7001,0,U,40376,999,61054,.80383E-4,.369E-5,0
KOMPSAT-3A,2015-014A,2026-07-07T03:11:22.618752,15.55072544,.0056917,97.6894,180.9677,103.9837,256.7754,0,U,40536,999,62491,.33646E-3,.24236E-3,0
SENTINEL-2A,2015-028A,2026-07-07T03:28:26.741280,14.30820905,.0001223,98.5674,262.7128,96.5318,263.6005,0,U,40697,999,57658,-.7742E-5,-.64E-6,0
GAOFEN-8,2015-030A,2026-07-07T05:07:01.930656,15.46718830,.0009805,97.6902,22.7943,120.2776,239.9444,0,U,40701,999,61454,.19449E-3,.9643E-4,0
CARBONITE 1 (CBNT-1),2015-032D,2026-07-07T03:30:17.377344,14.83652583,.0013213,97.6522,5.3777,225.3668,134.6470,0,U,40718,999,59230,.19227E-3,.1538E-4,0
YAOGAN-27,2015-040A,2026-07-07T04:10:39.997056,13.16071589,.0008308,100.1166,173.6900,162.8882,197.2513,0,U,40878,999,52029,.98446E-3,.332E-5,0
GAOFEN-9 01,2015-047A,2026-07-07T05:42:56.966112,14.82924091,.0028815,97.6266,223.0211,75.3727,285.0679,0,U,40894,999,58316,.10984E-3,.846E-5,0
YAOGAN-28,2015-064A,2026-07-07T04:06:40.827168,15.27688765,.0011953,97.3099,326.0317,117.8731,242.3721,0,U,41026,999,59373,.19524E-3,.522E-4,0
YAOGAN-29,2015-069A,2026-07-07T05:10:38.551872,14.83101057,.0001374,98.0019,216.8793,21.9128,338.2144,0,U,41038,999,57359,.1056E-4,.32E-6,0
KENT RIDGE 1,2015-077B,2026-07-07T03:15:36.845568,15.23253362,.0008186,14.9789,117.6108,161.4249,198.6373,0,U,41167,999,58414,.10615E-3,.3355E-4,0
GAOFEN-4,2015-083A,2026-07-06T19:38:45.176352,1.00272906,.0004256,0.4049,83.8626,118.1427,123.1868,0,U,41194,999,3872,0,-.32E-5,0
JASON-3,2016-002A,2026-07-07T02:51:45.028224,12.87628185,.0008258,66.0419,83.9316,271.5089,88.4984,0,U,41240,999,48981,.14388E-4,-.59E-6,0
SENTINEL-3A,2016-011A,2026-07-07T03:12:10.386720,14.26738227,.0001411,98.6240,255.2298,92.6602,267.4740,0,U,41335,999,54090,.49159E-4,.75E-6,0
ZIYUAN 3-02 (ZY 3-02),2016-033A,2026-07-07T04:27:14.517216,15.21381403,.0013264,97.3825,263.5753,213.6952,146.3442,0,U,41556,999,56102,.17269E-3,.3811E-4,0
CARTOSAT-2C,2016-040A,2026-07-07T03:34:51.833856,15.19225672,.0010071,97.4468,247.8513,69.8003,290.4314,0,U,41599,999,55674,.17286E-3,.3576E-4,0
SKYSAT-C1,2016-040C,2026-07-06T14:58:56.636832,15.36647042,.0001234,96.9556,218.2931,14.2930,345.8350,0,U,41601,999,56085,.2164E-3,.7669E-4,0
LAPAN-A3,2016-040E,2026-07-07T05:28:23.714400,15.33242195,.0008534,97.1498,183.7171,310.8467,49.2036,0,U,41603,999,55788,.90813E-4,.2844E-4,0
GAOFEN-3,2016-049A,2026-07-07T04:53:09.916800,14.42218428,.0001733,98.4016,195.6875,91.2294,268.9094,0,U,41727,999,52153,.48737E-4,.117E-5,0
