HODOYOSHI-4             
1 40011U 14033B   26188.13857683  .00002081  00000+0  23043-3 0  9998
2 40011  97.5461  11.9983 0022129 237.7306 122.1768 14.88179325651776
DEIMOS-2                
1 40013U 14033D   26188.14531920  .00002717  00000+0  26137-3 0  9997
2 40013  97.5801  61.9307 0001127  81.8545 278.2803 14.93789658640705
HODOYOSHI-3             
1 40015U 14033F   26187.92234714  .00000811  00000+0  99451-4 0  9998
2 40015  97.6438 350.1708 0031380 290.5000  69.2849 14.85426379650552
SPOT 7                  
1 40053U 14034A   26188.18025866  .00000364  00000+0  83556-4 0  9998
2 40053  98.0613 250.1562 0001495  98.6032 261.5339 14.60976856640055
SKYSAT-B                
1 40072U 14037D   26187.35655464  .00001402  00000+0  15918-3 0  9993
2 40072  98.3848 147.4157 0004837 202.7715 157.3286 14.88077956648814
WORLDVIEW-3 (WV-3)      
1 40115U 14048A   26188.17911029  .00000752  00000+0  94288-4 0  9991
2 40115  97.8559 262.7356 0000657 167.3198 192.8034 14.85055497644874
GAOFEN-2                
1 40118U 14049A   26188.17624102  .00000068  00000+0  15696-4 0  9994
2 40118  98.0095 252.3639 0007662 158.1268 202.0272 14.80920813642192
YAOGAN-21               
1 40143U 14053A   26188.22116412  .00004026  00000+0  15589-3 0  9991
2 40143  97.1464 227.5989 0008661  35.0176 325.1631 15.26684192658015
YAOGAN-22               
1 40275U 14063A   26187.95896034 -.00000037  00000+0  25509-4 0  9995
2 40275 100.7751 339.5625 0006744 142.3559 217.8025 13.15531480562418
ASNARO                  
1 40298U 14070A   26188.17763102  .00003767  00000+0  17925-3 0  9996
2 40298  97.3441 263.7535 0006831 110.2176 249.9794 15.19747814647042
YAOGAN-24               
1 40310U 14072A   26188.21411900  .00000823  00000+0  12670-3 0  9996
2 40310  98.1519 325.7220 0013952 195.5480 164.5302 14.76112428626670
CBERS 4                 
1 40336U 14079A   26188.18103608  .00000025  00000+0  23435-4 0  9996
2 40336  98.3516 244.3847 0001117  50.6558 309.4727 14.35514724606821
YAOGAN-26               
1 40362U 14088A   26188.17585659  .00023521  00000+0  44770-3 0  9994
2 40362  97.0645 187.9269 0003168  18.5233 341.6133 15.48210659640798
SMAP                    
1 40376U 15003A   26188.18242250  .00000369  00000+0  80383-4 0  9991
2 40376  98.1279 194.9938 0001536  97.4375 262.7001 14.63384435610546
KOMPSAT-3A              
1 40536U 15014A   26188.13290068  .00024236  00000+0  33646-3 0  9994
2 40536  97.6894 180.9677 0056917 103.9837 256.7754 15.55072544624916
SENTINEL-2A             
1 40697U 15028A   26188.14475395 -.00000064  00000+0 -77420-5 0  9991
2 40697  98.5674 262.7128 0001223  96.5318 263.6005 14.30820905576580
GAOFEN-8                
1 40701U 15030A   26188.21321679  .00009643  00000+0  19449-3 0  9998
2 40701  97.6902  22.7943 0009805 120.2776 239.9444 15.46718830614549
CARBONITE 1 (CBNT-1)    
1 40718U 15032D   26188.14603446  .00001538  00000+0  19227-3 0  9994
2 40718  97.6522   5.3777 0013213 225.3668 134.6470 14.83652583592303
YAOGAN-27               
1 40878U 15040A   26188.17407404  .00000332  00000+0  98446-3 0  9990
2 40878 100.1166 173.6900 0008308 162.8882 197.2513 13.16071589520291
GAOFEN-9 01             
1 40894U 15047A   26188.23815933  .00000846  00000+0  10984-3 0  9993
2 40894  97.6266 223.0211 0028815  75.3727 285.0679 14.82924091583169
YAOGAN-28               
1 41026U 15064A   26188.17130587  .00005220  00000+0  19524-3 0  9998
2 41026  97.3099 326.0317 0011953 117.8731 242.3721 15.27688765593734
YAOGAN-29               
1 41038U 15069A   26188.21572398  .00000032  00000+0  10560-4 0  9999
2 41038  98.0019 216.8793 0001374  21.9128 338.2144 14.83101057573593
KENT RIDGE 1            
1 41167U 15077B   26188.13584312  .00003355  00000+0  10615-3 0  9992
2 41167  14.9789 117.6108 0008186 161.4249 198.6373 15.23253362584144
GAOFEN-4                
1 41194U 15083A   26187.81857843 -.00000320  00000+0  00000+0 0  9998
2 41194   0.4049  83.8626 0004256 118.1427 123.1868  1.00272906 38728
JASON-3                 
1 41240U 16002A   26188.11927116 -.00000059  00000+0  14388-4 0  9995
2 41240  66.0419  83.9316 0008258 271.5089  88.4984 12.87628185489813
SENTINEL-3A             
1 41335U 16011A   26188.13345355  .00000075  00000+0  49159-4 0  9992
2 41335  98.6240 255.2298 0001411  92.6602 267.4740 14.26738227540902
ZIYUAN 3-02 (ZY 3-02)   
1 41556U 16033A   26188.18558469  .00003811  00000+0  17269-3 0  9995
2 41556  97.3825 263.5753 0013264 213.6952 146.3442 15.21381403561028
CARTOSAT-2C             
1 41599U 16040A   26188.14921104  .00003576  00000+0  17286-3 0  9993
2 41599  97.4468 247.8513 0010071  69.8003 290.4314 15.19225672556743
SKYSAT-C1               
1 41601U 16040C   26187.62426663  .00007669  00000+0  21640-3 0  9995
2 41601  96.9556 218.2931 0001234  14.2930 345.8350 15.36647042560859
LAPAN-A3                
1 41603U 16040E   26188.22805225  .00002844  00000+0  90813-4 0  9998
2 41603  97.1498 183.7171 0008534 310.8467  49.2036 15.33242195557883
GAOFEN-3                
1 41727U 16049A   26188.20358700  .00000117  00000+0  48737-4 0  9992
2 41727  98.4016 195.6875 0001733  91.2294 268.9094 14.42218428521533
